[{"OBJECT_NAME":"CS2","OBJECT_ID":"2021-088C","EPOCH":"2026-03-09T17:38:11.846112","MEAN_MOTION":15.3325593,"ECCENTRICITY":0.00116375,"INCLINATION":97.3928,"RA_OF_ASC_NODE":134.2907,"ARG_OF_PERICENTER":82.3491,"MEAN_ANOMALY":277.9072,"EPHEMERIS_TYPE":0,"CLASSIFICATION_TYPE":"U","NORAD_CAT_ID":49262,"ELEMENT_SET_NO":999,"REV_AT_EPOCH":24526,"BSTAR":0.0005617759,"MEAN_MOTION_DOT":0.00018033,"MEAN_MOTION_DDOT":0},{"OBJECT_NAME":"STARLINK-35425","OBJECT_ID":"2025-223W","EPOCH":"2026-03-09T21:12:25.371936","MEAN_MOTION":15.30220177,"ECCENTRICITY":5.463e-5,"INCLINATION":53.1607,"RA_OF_ASC_NODE":293.393,"ARG_OF_PERICENTER":104.8489,"MEAN_ANOMALY":255.2572,"EPHEMERIS_TYPE":0,"CLASSIFICATION_TYPE":"U","NORAD_CAT_ID":65874,"ELEMENT_SET_NO":999,"REV_AT_EPOCH":2423,"BSTAR":0.0011163536,"MEAN_MOTION_DOT":0.00032871,"MEAN_MOTION_DDOT":0}]
